KUIPER-00016            
1 63732U 25088J   25223.58334491  .00003267  00000+0  32604-3 0  9990
2 63732  51.8927 321.1448 0011293  97.8582 174.6173 14.94044068  5524
KUIPER-00018            
1 63733U 25088K   25223.58334491  .00006815  00000+0  37134-3 0  9996
2 63733  51.8773 314.6283 0010215  98.6251 245.0668 15.15458491  5753
KUIPER-00019            
1 63734U 25088L   25223.58334491 -.00006539  00000+0 -29427-3 0  9998
2 63734  51.8742 313.6039 0006664 114.3955   7.3761 15.18885586  5900
KUIPER-00020            
1 63735U 25088M   25223.56578627  .00009933  00000+0  56512-3 0  9992
2 63735  51.8846 315.8186 0006881 110.2296 249.9421 15.13417455 16491
KUIPER-00021            
1 63736U 25088N   25223.55149604  .00011504  00000+0  65142-3 0  9997
2 63736  51.8744 316.5591 0007336  97.3642 262.8168 15.13427967 16315
KUIPER-00023            
1 63737U 25088P   25223.55844537 -.00280149  00000+0 -16763-1 0  9993
2 63737  51.8801 317.3583 0009876 110.8301 249.3734 15.11887701 16609
KUIPER-00024            
1 63738U 25088Q   25223.58334491 -.00755473  00000+0 -24259-1 0  9996
2 63738  51.8733 311.7970 0001678 111.3001 145.8826 15.34445210  4527
KUIPER-00025            
1 63739U 25088R   25223.58334491 -.00765919  00000+0 -44295-1 0  9995
2 63739  51.8940 314.7444 0009240  99.5878 114.0644 15.14441949  5608
